KUIPER-00027            
1 63740U 25088S   26063.86575299  .00006699  00000+0  90684-3 0  9990
2 63740  51.9007 116.9162 0000758  82.0672 278.0377 14.79931738 46900
KUIPER-00028            
1 63741U 25088T   26063.36192456  .00003680  00000+0  51058-3 0  9995
2 63741  51.8989 116.6123 0000624  77.0276 283.0756 14.80003574 47277
KUIPER-00029            
1 63742U 25088U   26064.11695009  .00006061  00000+0  75457-3 0  9997
2 63742  51.9007 110.9161 0000706  97.2340 262.8705 14.83615084 46946
KUIPER-00030            
1 63743U 25088V   26063.57949167 -.00001464  00000+0 -16255-3 0  9999
2 63743  51.9000 133.1429 0010913  52.8570 307.3388 14.79931199 46874
KUIPER-00031            
1 63744U 25088W   26063.51778986  .00007427  00000+0  91847-3 0  9996
2 63744  51.8993 118.6945 0002182 127.3613 232.7550 14.83605758 46787
KUIPER-00032            
1 63745U 25088X   26064.24764962  .00019209  00000+0  52918-3 0  9994
2 63745  51.8699  45.7005 0005318  97.0059 263.1533 15.37144688 48869
KUIPER-00033            
1 63746U 25088Y   26064.24271422  .00007472  00000+0  92815-3 0  9998
2 63746  51.9001 145.6302 0000782  44.5122 315.5904 14.83412361 46954
KUIPER-00034            
1 63747U 25088Z   26064.26532699 -.00005869  00000+0 -67940-3 0  9998
2 63747  51.9017 107.8686 0001714 339.5976  20.4919 14.83524550 47163
KUIPER-00035            
1 63748U 25088AA  26064.00002315  .00022388  00000+0  27317-2 0  9994
2 63748  51.8987 134.7148 0003836  61.6917 116.7656 14.83232963  3080
KUIPER-00037            
1 63749U 25088AB  26064.18457390  .00013009  00000+0  17319-2 0  9992
2 63749  51.8999 132.9840 0000886  54.3505 305.7540 14.79937985 47640
KUIPER-00038            
1 63750U 25088AC  26064.13321068  .00001700  00000+0  25177-3 0  9998
2 63750  51.9030 118.2389 0000647  96.6236 263.4800 14.79956093 46840
KUIPER-00039            
1 64500U 25134A   26064.24096017  .00004536  00000+0  62354-3 0  9997
2 64500  51.8999 252.7644 0001023  66.7854 293.3216 14.79934685 39419
KUIPER-00040            
1 64501U 25134B   26063.82320316  .00009934  00000+0  13272-2 0  9994
2 64501  51.8984 265.7490 0013506 248.7136 111.2384 14.79979044 39198
KUIPER-00041            
1 64502U 25134C   26063.55774350  .00004422  00000+0  62633-3 0  9999
2 64502  51.8986 268.3368 0007155 248.4948 111.5251 14.78704906 39137
KUIPER-00042            
1 64503U 25134D   26063.96096396  .00014528  00000+0  19298-2 0  9998
2 64503  51.8982 262.5029 0007170 264.9825  95.0319 14.79938603 39256
KUIPER-00043            
1 64504U 25134E   26064.21793473  .00005352  00000+0  66666-3 0  9995
2 64504  51.9012 252.9130 0000950 321.1258  38.9638 14.83798895 39413
