[{"OBJECT_NAME":"KUIPER-00027","OBJECT_ID":"2025-088S","EPOCH":"2026-03-04T20:46:41.058336","MEAN_MOTION":14.79931738,"ECCENTRICITY":7.58e-5,"INCLINATION":51.9007,"RA_OF_ASC_NODE":116.9162,"ARG_OF_PERICENTER":82.0672,"MEAN_ANOMALY":278.0377,"EPHEMERIS_TYPE":0,"CLASSIFICATION_TYPE":"U","NORAD_CAT_ID":63740,"ELEMENT_SET_NO":999,"REV_AT_EPOCH":4690,"BSTAR":0.00090683915,"MEAN_MOTION_DOT":6.699e-5,"MEAN_MOTION_DDOT":0},{"OBJECT_NAME":"KUIPER-00028","OBJECT_ID":"2025-088T","EPOCH":"2026-03-04T08:41:10.281984","MEAN_MOTION":14.80003574,"ECCENTRICITY":6.242e-5,"INCLINATION":51.8989,"RA_OF_ASC_NODE":116.6123,"ARG_OF_PERICENTER":77.0276,"MEAN_ANOMALY":283.0756,"EPHEMERIS_TYPE":0,"CLASSIFICATION_TYPE":"U","NORAD_CAT_ID":63741,"ELEMENT_SET_NO":999,"REV_AT_EPOCH":4727,"BSTAR":0.00051058241,"MEAN_MOTION_DOT":3.68e-5,"MEAN_MOTION_DDOT":0},{"OBJECT_NAME":"KUIPER-00029","OBJECT_ID":"2025-088U","EPOCH":"2026-03-05T02:48:24.487776","MEAN_MOTION":14.83615084,"ECCENTRICITY":7.069e-5,"INCLINATION":51.9007,"RA_OF_ASC_NODE":110.9161,"ARG_OF_PERICENTER":97.234,"MEAN_ANOMALY":262.8705,"EPHEMERIS_TYPE":0,"CLASSIFICATION_TYPE":"U","NORAD_CAT_ID":63742,"ELEMENT_SET_NO":999,"REV_AT_EPOCH":4694,"BSTAR":0.00075457334,"MEAN_MOTION_DOT":6.061e-5,"MEAN_MOTION_DDOT":0},{"OBJECT_NAME":"KUIPER-00030","OBJECT_ID":"2025-088V","EPOCH":"2026-03-04T13:54:28.080288","MEAN_MOTION":14.79931199,"ECCENTRICITY":0.0010913,"INCLINATION":51.9,"RA_OF_ASC_NODE":133.1429,"ARG_OF_PERICENTER":52.857,"MEAN_ANOMALY":307.3388,"EPHEMERIS_TYPE":0,"CLASSIFICATION_TYPE":"U","NORAD_CAT_ID":63743,"ELEMENT_SET_NO":999,"REV_AT_EPOCH":4687,"BSTAR":-0.00016255,"MEAN_MOTION_DOT":-1.464e-5,"MEAN_MOTION_DDOT":0},{"OBJECT_NAME":"KUIPER-00031","OBJECT_ID":"2025-088W","EPOCH":"2026-03-04T12:25:37.043904","MEAN_MOTION":14.83605758,"ECCENTRICITY":0.0002182,"INCLINATION":51.8993,"RA_OF_ASC_NODE":118.6945,"ARG_OF_PERICENTER":127.3613,"MEAN_ANOMALY":232.755,"EPHEMERIS_TYPE":0,"CLASSIFICATION_TYPE":"U","NORAD_CAT_ID":63744,"ELEMENT_SET_NO":999,"REV_AT_EPOCH":4678,"BSTAR":0.00091847,"MEAN_MOTION_DOT":7.427e-5,"MEAN_MOTION_DDOT":0},{"OBJECT_NAME":"KUIPER-00032","OBJECT_ID":"2025-088X","EPOCH":"2026-03-05T05:56:36.927168","MEAN_MOTION":15.37144688,"ECCENTRICITY":0.00053186,"INCLINATION":51.8699,"RA_OF_ASC_NODE":45.7005,"ARG_OF_PERICENTER":97.0059,"MEAN_ANOMALY":263.1533,"EPHEMERIS_TYPE":0,"CLASSIFICATION_TYPE":"U","NORAD_CAT_ID":63745,"ELEMENT_SET_NO":999,"REV_AT_EPOCH":4886,"BSTAR":0.00052918216,"MEAN_MOTION_DOT":0.00019209,"MEAN_MOTION_DDOT":0},{"OBJECT_NAME":"KUIPER-00033","OBJECT_ID":"2025-088Y","EPOCH":"2026-03-05T05:49:30.508608","MEAN_MOTION":14.83412361,"ECCENTRICITY":7.826e-5,"INCLINATION":51.9001,"RA_OF_ASC_NODE":145.6302,"ARG_OF_PERICENTER":44.5122,"MEAN_ANOMALY":315.5904,"EPHEMERIS_TYPE":0,"CLASSIFICATION_TYPE":"U","NORAD_CAT_ID":63746,"ELEMENT_SET_NO":999,"REV_AT_EPOCH":4695,"BSTAR":0.0009281522,"MEAN_MOTION_DOT":7.472e-5,"MEAN_MOTION_DDOT":0},{"OBJECT_NAME":"KUIPER-00034","OBJECT_ID":"2025-088Z","EPOCH":"2026-03-05T06:22:04.251936","MEAN_MOTION":14.8352455,"ECCENTRICITY":0.00017145,"INCLINATION":51.9017,"RA_OF_ASC_NODE":107.8686,"ARG_OF_PERICENTER":339.5976,"MEAN_ANOMALY":20.4919,"EPHEMERIS_TYPE":0,"CLASSIFICATION_TYPE":"U","NORAD_CAT_ID":63747,"ELEMENT_SET_NO":999,"REV_AT_EPOCH":4716,"BSTAR":-0.00067940004,"MEAN_MOTION_DOT":-5.869e-5,"MEAN_MOTION_DDOT":0},{"OBJECT_NAME":"KUIPER-00035","OBJECT_ID":"2025-088AA","EPOCH":"2026-03-05T00:00:02.000160","MEAN_MOTION":14.83232963,"ECCENTRICITY":0.00038362,"INCLINATION":51.8987,"RA_OF_ASC_NODE":134.7148,"ARG_OF_PERICENTER":61.6917,"MEAN_ANOMALY":116.7656,"EPHEMERIS_TYPE":0,"CLASSIFICATION_TYPE":"U","NORAD_CAT_ID":63748,"ELEMENT_SET_NO":999,"REV_AT_EPOCH":308,"BSTAR":0.0027317414,"MEAN_MOTION_DOT":0.00022388,"MEAN_MOTION_DDOT":0},{"OBJECT_NAME":"KUIPER-00037","OBJECT_ID":"2025-088AB","EPOCH":"2026-03-05T04:25:47.184960","MEAN_MOTION":14.79937985,"ECCENTRICITY":8.867e-5,"INCLINATION":51.8999,"RA_OF_ASC_NODE":132.984,"ARG_OF_PERICENTER":54.3505,"MEAN_ANOMALY":305.754,"EPHEMERIS_TYPE":0,"CLASSIFICATION_TYPE":"U","NORAD_CAT_ID":63749,"ELEMENT_SET_NO":999,"REV_AT_EPOCH":4764,"BSTAR":0.0017319361,"MEAN_MOTION_DOT":0.00013009,"MEAN_MOTION_DDOT":0},{"OBJECT_NAME":"KUIPER-00038","OBJECT_ID":"2025-088AC","EPOCH":"2026-03-05T03:11:49.402752","MEAN_MOTION":14.79956093,"ECCENTRICITY":6.476e-5,"INCLINATION":51.903,"RA_OF_ASC_NODE":118.2389,"ARG_OF_PERICENTER":96.6236,"MEAN_ANOMALY":263.48,"EPHEMERIS_TYPE":0,"CLASSIFICATION_TYPE":"U","NORAD_CAT_ID":63750,"ELEMENT_SET_NO":999,"REV_AT_EPOCH":4684,"BSTAR":0.00025176843,"MEAN_MOTION_DOT":1.7e-5,"MEAN_MOTION_DDOT":0},{"OBJECT_NAME":"KUIPER-00039","OBJECT_ID":"2025-134A","EPOCH":"2026-03-05T05:46:58.958688","MEAN_MOTION":14.79934685,"ECCENTRICITY":0.00010232,"INCLINATION":51.8999,"RA_OF_ASC_NODE":252.7644,"ARG_OF_PERICENTER":66.7854,"MEAN_ANOMALY":293.3216,"EPHEMERIS_TYPE":0,"CLASSIFICATION_TYPE":"U","NORAD_CAT_ID":64500,"ELEMENT_SET_NO":999,"REV_AT_EPOCH":3941,"BSTAR":0.00062354002,"MEAN_MOTION_DOT":4.536e-5,"MEAN_MOTION_DDOT":0},{"OBJECT_NAME":"KUIPER-00040","OBJECT_ID":"2025-134B","EPOCH":"2026-03-04T19:45:24.753024","MEAN_MOTION":14.79979044,"ECCENTRICITY":0.00135068,"INCLINATION":51.8984,"RA_OF_ASC_NODE":265.749,"ARG_OF_PERICENTER":248.7136,"MEAN_ANOMALY":111.2384,"EPHEMERIS_TYPE":0,"CLASSIFICATION_TYPE":"U","NORAD_CAT_ID":64501,"ELEMENT_SET_NO":999,"REV_AT_EPOCH":3919,"BSTAR":0.0013271506,"MEAN_MOTION_DOT":9.934e-5,"MEAN_MOTION_DDOT":0},{"OBJECT_NAME":"KUIPER-00041","OBJECT_ID":"2025-134C","EPOCH":"2026-03-04T13:23:09.038400","MEAN_MOTION":14.78704906,"ECCENTRICITY":0.0007155,"INCLINATION":51.8986,"RA_OF_ASC_NODE":268.3368,"ARG_OF_PERICENTER":248.4948,"MEAN_ANOMALY":111.5251,"EPHEMERIS_TYPE":0,"CLASSIFICATION_TYPE":"U","NORAD_CAT_ID":64502,"ELEMENT_SET_NO":999,"REV_AT_EPOCH":3913,"BSTAR":0.00062633,"MEAN_MOTION_DOT":4.422e-5,"MEAN_MOTION_DDOT":0},{"OBJECT_NAME":"KUIPER-00042","OBJECT_ID":"2025-134D","EPOCH":"2026-03-04T23:03:47.286144","MEAN_MOTION":14.79938603,"ECCENTRICITY":0.00071706,"INCLINATION":51.8982,"RA_OF_ASC_NODE":262.5029,"ARG_OF_PERICENTER":264.9825,"MEAN_ANOMALY":95.0319,"EPHEMERIS_TYPE":0,"CLASSIFICATION_TYPE":"U","NORAD_CAT_ID":64503,"ELEMENT_SET_NO":999,"REV_AT_EPOCH":3925,"BSTAR":0.0019297846,"MEAN_MOTION_DOT":0.00014528,"MEAN_MOTION_DDOT":0},{"OBJECT_NAME":"KUIPER-00043","OBJECT_ID":"2025-134E","EPOCH":"2026-03-05T05:13:49.560672","MEAN_MOTION":14.83798895,"ECCENTRICITY":9.5e-5,"INCLINATION":51.9012,"RA_OF_ASC_NODE":252.913,"ARG_OF_PERICENTER":321.1258,"MEAN_ANOMALY":38.9638,"EPHEMERIS_TYPE":0,"CLASSIFICATION_TYPE":"U","NORAD_CAT_ID":64504,"ELEMENT_SET_NO":999,"REV_AT_EPOCH":3941,"BSTAR":0.00066665934,"MEAN_MOTION_DOT":5.352e-5,"MEAN_MOTION_DDOT":0}]
